{"type": "FeatureCollection", "features": [{"type": "Feature", "properties": {"norad_id": 25590, "name": "COSMOS 2361", "group": "musson", "lat": -76.03437215690276, "lon": -38.48853094126071, "alt_km": 973.6733162440269, "timestamp": "2025-12-02T19:35:50.825543+00:00", "meta": {"OBJECT_NAME": "COSMOS 2361", "OBJECT_ID": "1998-076A", "EPOCH": "2025-12-02T11:58:55.160256", "MEAN_MOTION": 13.73215797, "ECCENTRICITY": 0.003018, "INCLINATION": 82.9342, "RA_OF_ASC_NODE": 351.6611, "ARG_OF_PERICENTER": 295.3301, "MEAN_ANOMALY": 219.0762, "EPHEMERIS_TYPE": 0, "CLASSIFICATION_TYPE": "U", "NORAD_CAT_ID": 25590, "ELEMENT_SET_NO": 999, "REV_AT_EPOCH": 34970, "BSTAR": 8.6189e-05, "MEAN_MOTION_DOT": 9.5e-07, "MEAN_MOTION_DDOT": 0}, "tle": {"line1": "1 25590U 98076A   25336.49924954  .00000095  00000+0  86189-4 0  9995", "line2": "2 25590  82.9342 351.6611 0030180 295.3301 219.0762 13.73215797349704"}}, "geometry": {"type": "Point", "coordinates": [-38.48853094126071, -76.03437215690276]}}, {"type": "Feature", "properties": {"norad_id": 26818, "name": "COSMOS 2378", "group": "musson", "lat": -37.582380681760895, "lon": 1.6010051305195785, "alt_km": 990.5745989381339, "timestamp": "2025-12-02T19:35:50.825566+00:00", "meta": {"OBJECT_NAME": "COSMOS 2378", "OBJECT_ID": "2001-023A", "EPOCH": "2025-12-02T11:35:10.216032", "MEAN_MOTION": 13.74140542, "ECCENTRICITY": 0.0031883, "INCLINATION": 82.928, "RA_OF_ASC_NODE": 7.3306, "ARG_OF_PERICENTER": 234.1904, "MEAN_ANOMALY": 237.2553, "EPHEMERIS_TYPE": 0, "CLASSIFICATION_TYPE": "U", "NORAD_CAT_ID": 26818, "ELEMENT_SET_NO": 999, "REV_AT_EPOCH": 22782, "BSTAR": 6.4452e-05, "MEAN_MOTION_DOT": 7.6e-07, "MEAN_MOTION_DDOT": 0}, "tle": {"line1": "1 26818U 01023A   25336.48275713  .00000076  00000+0  64452-4 0  9994", "line2": "2 26818  82.9280   7.3306 0031883 234.1904 237.2553 13.74140542227820"}}, "geometry": {"type": "Point", "coordinates": [1.6010051305195785, -37.582380681760895]}}, {"type": "Feature", "properties": {"norad_id": 27436, "name": "COSMOS 2389", "group": "musson", "lat": 46.452878999088874, "lon": 126.8507265472717, "alt_km": 952.2347340597835, "timestamp": "2025-12-02T19:35:50.825579+00:00", "meta": {"OBJECT_NAME": "COSMOS 2389", "OBJECT_ID": "2002-026A", "EPOCH": "2025-12-02T10:47:54.072096", "MEAN_MOTION": 13.75152982, "ECCENTRICITY": 0.0047787, "INCLINATION": 82.9494, "RA_OF_ASC_NODE": 314.6031, "ARG_OF_PERICENTER": 88.6796, "MEAN_ANOMALY": 29.9511, "EPHEMERIS_TYPE": 0, "CLASSIFICATION_TYPE": "U", "NORAD_CAT_ID": 27436, "ELEMENT_SET_NO": 999, "REV_AT_EPOCH": 18007, "BSTAR": 6.8966e-05, "MEAN_MOTION_DOT": 8.2e-07, "MEAN_MOTION_DDOT": 0}, "tle": {"line1": "1 27436U 02026A   25336.44993139  .00000082  00000+0  68966-4 0  9991", "line2": "2 27436  82.9494 314.6031 0047787  88.6796  29.9511 13.75152982180071"}}, "geometry": {"type": "Point", "coordinates": [126.8507265472717, 46.452878999088874]}}, {"type": "Feature", "properties": {"norad_id": 27818, "name": "COSMOS 2398", "group": "musson", "lat": -4.4230211328137505, "lon": 100.55988992265347, "alt_km": 977.9430162400295, "timestamp": "2025-12-02T19:35:50.825591+00:00", "meta": {"OBJECT_NAME": "COSMOS 2398", "OBJECT_ID": "2003-023A", "EPOCH": "2025-12-02T08:45:35.572320", "MEAN_MOTION": 13.7238416, "ECCENTRICITY": 0.0032179, "INCLINATION": 82.9473, "RA_OF_ASC_NODE": 280.344, "ARG_OF_PERICENTER": 139.6647, "MEAN_ANOMALY": 334.6694, "EPHEMERIS_TYPE": 0, "CLASSIFICATION_TYPE": "U", "NORAD_CAT_ID": 27818, "ELEMENT_SET_NO": 999, "REV_AT_EPOCH": 12674, "BSTAR": 4.0741e-05, "MEAN_MOTION_DOT": 5.3e-07, "MEAN_MOTION_DDOT": 0}, "tle": {"line1": "1 27818U 03023A   25336.36499505  .00000053  00000+0  40741-4 0  9991", "line2": "2 27818  82.9473 280.3440 0032179 139.6647 334.6694 13.72384160126740"}}, "geometry": {"type": "Point", "coordinates": [100.55988992265347, -4.4230211328137505]}}, {"type": "Feature", "properties": {"norad_id": 28380, "name": "COSMOS 2407", "group": "musson", "lat": -59.179245285827314, "lon": 52.189953151677976, "alt_km": 1011.7979330524422, "timestamp": "2025-12-02T19:35:50.825602+00:00", "meta": {"OBJECT_NAME": "COSMOS 2407", "OBJECT_ID": "2004-028A", "EPOCH": "2025-12-02T05:02:02.311872", "MEAN_MOTION": 13.76311785, "ECCENTRICITY": 0.00405538, "INCLINATION": 82.9615, "RA_OF_ASC_NODE": 220.6883, "ARG_OF_PERICENTER": 83.3867, "MEAN_ANOMALY": 31.4092, "EPHEMERIS_TYPE": 0, "CLASSIFICATION_TYPE": "U", "NORAD_CAT_ID": 28380, "ELEMENT_SET_NO": 999, "REV_AT_EPOCH": 7278, "BSTAR": 7.6000487e-05, "MEAN_MOTION_DOT": 9e-07, "MEAN_MOTION_DDOT": 0}, "tle": {"line1": "1 28380U 04028A   25336.20974898  .00000090  00000+0  76000-4 0  9996", "line2": "2 28380  82.9615 220.6883 0040553  83.3867  31.4092 13.76311785 72780"}}, "geometry": {"type": "Point", "coordinates": [52.189953151677976, -59.179245285827314]}}, {"type": "Feature", "properties": {"norad_id": 28521, "name": "COSMOS 2414", "group": "musson", "lat": 82.90208868917948, "lon": -84.20850481086664, "alt_km": 922.4743940371618, "timestamp": "2025-12-02T19:35:50.825613+00:00", "meta": {"OBJECT_NAME": "COSMOS 2414", "OBJECT_ID": "2005-002A", "EPOCH": "2025-12-02T08:47:10.253760", "MEAN_MOTION": 13.87900787, "ECCENTRICITY": 0.0040257, "INCLINATION": 82.9498, "RA_OF_ASC_NODE": 192.5036, "ARG_OF_PERICENTER": 168.8596, "MEAN_ANOMALY": 191.3468, "EPHEMERIS_TYPE": 0, "CLASSIFICATION_TYPE": "U", "NORAD_CAT_ID": 28521, "ELEMENT_SET_NO": 999, "REV_AT_EPOCH": 5651, "BSTAR": 8.1631e-05, "MEAN_MOTION_DOT": 1.14e-06, "MEAN_MOTION_DDOT": 0}, "tle": {"line1": "1 28521U 05002A   25336.36609090  .00000114  00000+0  81631-4 0  9995", "line2": "2 28521  82.9498 192.5036 0040257 168.8596 191.3468 13.87900787 56516"}}, "geometry": {"type": "Point", "coordinates": [-84.20850481086664, 82.90208868917948]}}, {"type": "Feature", "properties": {"norad_id": 32052, "name": "COSMOS 2429", "group": "musson", "lat": -41.46162234907851, "lon": -15.624410984685605, "alt_km": 995.9085744707454, "timestamp": "2025-12-02T19:35:50.825624+00:00", "meta": {"OBJECT_NAME": "COSMOS 2429", "OBJECT_ID": "2007-038A", "EPOCH": "2025-12-02T11:04:09.044256", "MEAN_MOTION": 13.75147891, "ECCENTRICITY": 0.0039656, "INCLINATION": 82.9806, "RA_OF_ASC_NODE": 350.8867, "ARG_OF_PERICENTER": 65.8031, "MEAN_ANOMALY": 294.7262, "EPHEMERIS_TYPE": 0, "CLASSIFICATION_TYPE": "U", "NORAD_CAT_ID": 32052, "ELEMENT_SET_NO": 999, "REV_AT_EPOCH": 91461, "BSTAR": 7.5511e-05, "MEAN_MOTION_DOT": 8.8e-07, "MEAN_MOTION_DDOT": 0}, "tle": {"line1": "1 32052U 07038A   25336.46121579  .00000088  00000+0  75511-4 0  9992", "line2": "2 32052  82.9806 350.8867 0039656  65.8031 294.7262 13.75147891914615"}}, "geometry": {"type": "Point", "coordinates": [-15.624410984685605, -41.46162234907851]}}, {"type": "Feature", "properties": {"norad_id": 35635, "name": "COSMOS 2454", "group": "musson", "lat": 66.41660823792925, "lon": -167.37944227199026, "alt_km": 909.8267913297859, "timestamp": "2025-12-02T19:35:50.825634+00:00", "meta": {"OBJECT_NAME": "COSMOS 2454", "OBJECT_ID": "2009-039A", "EPOCH": "2025-12-02T12:39:16.932384", "MEAN_MOTION": 13.89926607, "ECCENTRICITY": 0.0020475, "INCLINATION": 82.9557, "RA_OF_ASC_NODE": 176.3863, "ARG_OF_PERICENTER": 101.0271, "MEAN_ANOMALY": 319.9184, "EPHEMERIS_TYPE": 0, "CLASSIFICATION_TYPE": "U", "NORAD_CAT_ID": 35635, "ELEMENT_SET_NO": 999, "REV_AT_EPOCH": 83008, "BSTAR": 7.3072e-05, "MEAN_MOTION_DOT": 1.06e-06, "MEAN_MOTION_DDOT": 0}, "tle": {"line1": "1 35635U 09039A   25336.52727931  .00000106  00000+0  73072-4 0  9997", "line2": "2 35635  82.9557 176.3863 0020475 101.0271 319.9184 13.89926607830089"}}, "geometry": {"type": "Point", "coordinates": [-167.37944227199026, 66.41660823792925]}}, {"type": "Feature", "properties": {"norad_id": 36519, "name": "COSMOS 2463", "group": "musson", "lat": 39.93043617660319, "lon": 39.93915174159048, "alt_km": 987.6504673294239, "timestamp": "2025-12-02T19:35:50.825645+00:00", "meta": {"OBJECT_NAME": "COSMOS 2463", "OBJECT_ID": "2010-017A", "EPOCH": "2025-12-02T07:29:43.260864", "MEAN_MOTION": 13.71647725, "ECCENTRICITY": 0.0035132, "INCLINATION": 82.9622, "RA_OF_ASC_NODE": 34.3746, "ARG_OF_PERICENTER": 317.9509, "MEAN_ANOMALY": 113.4537, "EPHEMERIS_TYPE": 0, "CLASSIFICATION_TYPE": "U", "NORAD_CAT_ID": 36519, "ELEMENT_SET_NO": 999, "REV_AT_EPOCH": 78094, "BSTAR": 7.1296e-05, "MEAN_MOTION_DOT": 7.9e-07, "MEAN_MOTION_DDOT": 0}, "tle": {"line1": "1 36519U 10017A   25336.31230626  .00000079  00000+0  71296-4 0  9999", "line2": "2 36519  82.9622  34.3746 0035132 317.9509 113.4537 13.71647725780945"}}, "geometry": {"type": "Point", "coordinates": [39.93915174159048, 39.93043617660319]}}]}